CIC_OEM_VERS = 2.0
CREATION_DATE = 2025-05-13T13:35:41.684466
ORIGINATOR = ISAE-SUPAERO


META_START
OBJECT_NAME = RED1
OBJECT_ID = RED1
CENTER_NAME = Earth
REF_FRAME = EME2000
TIME_SYSTEM = UTC
START_TIME = 2025-05-13T00:00:00.000
USEABLE_START_TIME = 2025-05-13T00:00:00.000
USEABLE_STOP_TIME = 2025-05-13T23:55:00.000
STOP_TIME = 2025-05-13T23:55:00.000
INTERPOLATION = lagrange
INTERPOLATION_DEGREE = 5
META_STOP



60808 0.0 1141.3702 2366.6262 6477.9512 -0.37052067 -7.0538623 2.6089181
60808 420.0 875.8891800000001 -734.33013 6881.294900000001 -0.8724369900000001 -7.4592932 -0.7244552700000001
60808 840.0 433.00974 -3685.7092000000002 5886.7545 -1.2005055 -6.3500317 -3.9340509000000004
60808 1260.0 -98.23055400000001 -5883.031 3686.4937999999997 -1.2851156000000001 -3.9266496 -6.3635637
60808 1680.0 -609.06273 -6866.5001 724.7141700000001 -1.1043604 -0.6702475 -7.4923814
60808 2100.0 -993.38125 -6424.2667 -2387.4586 -0.6931877 2.7399994000000003 -7.0642778
60808 2520.0 -1171.0571000000002 -4645.5646 -5001.692599999999 -0.13820187 5.5787063 -5.164623
60808 2940.0 -1105.829 -1902.9014 -6576.0077 0.44274292000000004 7.250112100000001 -2.2029594
60808 3360.0 -812.53012 1232.8962 -6790.9627 0.9289072 7.4207564 1.1933734999999999
60808 3780.0 -352.72621000000004 4116.8005 -5611.1013 1.2223166 6.074934000000001 4.324050199999999
60808 4200.0 179.00494 6162.8431 -3285.2003 1.2659478 3.50179 6.5579415
60808 4620.0 674.54916 6959.9708 -291.24131 1.0533051 0.23085734 7.4523701
60808 5040.0 1033.9505 6351.7981 2762.0268 0.62899065 -3.0756379000000003 6.8373386
60808 5460.0 1185.1884 4464.6144 5257.907700000001 0.07894308800000001 -5.7567018 4.8441137
60808 5880.0 1097.9726 1679.2576999999999 6693.099200000001 -0.48738434 -7.2803382 1.8714739
60808 6300.0 789.3157600000001 -1444.3231 6774.5841 -0.95764578 -7.3380469999999995 -1.4938149
60808 6720.0 320.52578000000005 -4273.9067000000005 5477.4631 -1.236395 -5.900143 -4.5803683
60808 7140.0 -213.76109 -6227.2933 3056.0978999999998 -1.263317 -3.2347562 -6.750809100000001
60808 7560.0 -703.74308 -6893.503900000001 2.3142905999999996 -1.0285255 0.12165009 -7.5345272
60808 7980.0 -1047.4244 -6127.0758 -3051.5875 -0.57900771 3.4637927 -6.7495262
60808 8400.0 -1173.2705 -4086.2628 -5469.2788 -0.010056642999999999 6.0808279 -4.560754200000001
60808 8820.0 -1056.0358 -1198.3901 -6751.1788 0.55789575 7.4278174 -1.4393145
60808 9240.0 -721.32584 1936.9471 -6639.584400000001 1.0076122 7.2418486 1.9575259
60808 9660.0 -238.99744 4676.7619 -5166.2357 1.2491223 5.5801646 4.933566300000001
60808 10080.0 292.04182000000003 6465.799400000001 -2638.9388 1.2359875 2.7940676 6.8913539
60808 10500.0 764.03032 6945.7527 424.54116999999997 0.9730971700000001 -0.54578214 7.4447898
60808 10920.0 1081.9281 6024.3517 3402.4606000000003 0.5149568000000001 -3.7652677 6.4925370000000004
60808 11340.0 1182.0943 3890.3795 5693.921200000001 -0.046125400999999996 -6.2224832 4.2319764
60808 11760.0 1044.3701 973.63284 6836.3741 -0.5987904 -7.4294044999999995 1.1129486
60808 12180.0 695.77983 -2139.1362999999997 6594.5443 -1.0330992 -7.1375603000000005 -2.2487649000000003
60808 12600.0 205.78041000000002 -4815.999400000001 5008.1726 -1.2600073999999999 -5.3848153000000005 -5.178395000000001
60808 13020.0 -326.28996 -6503.4622 2391.7294 -1.2291706 -2.5055931 -7.0644852
60808 13440.0 -790.69028 -6844.4328 -720.4325200000001 -0.94294994 0.91337886 -7.4931014
60808 13860.0 -1090.6117 -5762.0085 -3682.1275 -0.45999379 4.1494606 -6.3598549
60808 14280.0 -1163.8281000000002 -3481.6574 -5876.5949 0.1170187 6.5157173 -3.9070587999999997
60808 14700.0 -996.22266 -480.32966 -6852.2749 0.6664773 7.524212 -0.6608377000000001
60808 15120.0 -623.76813 2620.4319 -6415.7547 1.0757503 6.9845675 2.6994598
60808 15540.0 -123.82045 5186.6345 -4665.2252 1.2635318 5.0255228 5.4890639000000006
60808 15960.0 401.36808 6699.552900000001 -1964.0292 1.1942821 2.0567109 7.1501301999999995
60808 16380.0 845.42608 6857.330599999999 1135.9249 0.8841443400000001 -1.3163095 7.357186899999999
60808 16800.0 1119.0827 5632.5863 4006.5611000000004 0.3968304 -4.4148098000000005 6.0781929
60808 17220.0 1167.5713 3274.4706 6068.99 -0.16994651 -6.622301800000001 3.5740852
60808 17640.0 980.9685400000001 257.3163 6906.1165 -0.70378817 -7.499265500000001 0.34123313000000005
60808 18060.0 596.04458 -2811.1874 6342.923 -1.0980727 -6.8595654 -2.981207
60808 18480.0 89.772877 -5305.8652999999995 4483.821 -1.270977 -4.8093273 -5.721323099999999
60808 18900.0 -434.76832 -6708.2489000000005 1700.5933 -1.1828239 -1.7472014 -7.3007456
60808 19320.0 -869.05333 -6719.674400000001 -1435.5505 -0.8484266 1.6958472 -7.3684173
60808 19740.0 -1122.5241 -5333.0812000000005 -4272.1271 -0.33735395 4.7891696 -5.899700200000001
60808 20160.0 -1142.8523 -2838.4797000000003 -6219.2339 0.24171229 6.8785125 -3.2109493000000002
60808 20580.0 -927.03015 243.26755 -6878.33 0.76738052 7.5383171 0.12371366
60808 21000.0 -520.88014 3275.7655 -6122.119 1.1326232 6.6518454 3.4109668
60808 21420.0 -8.3986883 5640.7868 -4113.7832 1.2654155 4.4172318 5.9843913
60808 21840.0 505.86192 6861.5618 -1268.094 1.1413328 1.2979393000000001 7.3314966
60808 22260.0 917.92803 6695.7351 1834.9282 0.7874044699999999 -2.07221 7.190619300000001
60808 22680.0 1145.0681000000002 5180.8917 4567.5614000000005 0.27582936999999996 -5.0170273 5.5989502
60808 23100.0 1141.8236000000002 2623.8011 6378.920400000001 -0.29114690000000004 -6.9515982 2.8778319999999997
60808 23520.0 908.5294399999999 -461.57379 6901.5564 -0.80115283 -7.4888081 -0.43497203
60808 23940.0 491.3073 -3452.6925 6022.6587 -1.1517541000000002 -6.506800500000001 -3.6824227
60808 24360.0 -26.093457 -5737.696900000001 3910.7457999999997 -1.2691987 -4.1803112 -6.2021043
60808 24780.0 -537.93364 -6839.2712 991.28007 -1.1250604000000002 -0.9690100700000001 -7.4562239
60808 25200.0 -938.0356899999999 -6520.9817 -2134.0272999999997 -0.74629458 2.4592006 -7.1618762
60808 25620.0 -1142.9572 -4845.869900000001 -4814.1467 -0.21251228 5.3749618 -5.3750058
60808 26040.0 -1110.71 -2164.8887999999997 -6492.9658 0.36276942 7.165078800000001 -2.4813311
60808 26460.0 -849.28882 963.43137 -6829.108200000001 0.85971561 7.4705266 0.90474252
60808 26880.0 -413.75942 3895.0222000000003 -5762.2528 1.1778754 6.2481496 4.0837736
60808 27300.0 106.15196 6033.8463 -3518.3922000000002 1.2550336 3.762735 6.4141951
60808 27720.0 604.62708 6949.9176 -559.09111 1.077899 0.5265294699999999 7.4338556
60808 28140.0 981.03621 6462.7392 2513.7477999999996 0.68399405 -2.8050105 6.9473857
60808 28560.0 1159.9158 4674.227900000001 5079.3360999999995 0.15332900000000002 -5.5654618000000005 5.0603264
60808 28980.0 1105.4486000000002 1945.4364 6620.364500000001 -0.40847578 -7.2068826 2.1507278000000003
60808 29400.0 828.09756 -1175.2053 6822.7403 -0.8900330000000001 -7.3979546 -1.2072071000000002
60808 29820.0 382.84828000000005 -4056.5766000000003 5637.3088 -1.1939197 -6.0829609 -4.3444362000000005
60808 30240.0 -140.60293 -6106.7086 3295.4152999999997 -1.2551738000000001 -3.5046964 -6.615222
60808 30660.0 -634.8667700000001 -6895.0712 271.81675 -1.056733 -0.17969182 -7.5291902
60808 31080.0 -997.14284 -6250.6247 -2808.0295 -0.63776602 3.1947492000000004 -6.8761766
60808 31500.0 -1152.0004 -4305.856400000001 -5302.3154 -0.086969015 5.9005607 -4.7921636
60808 31920.0 -1068.0964 -1468.2314 -6695.0805 0.4788785 7.3728204 -1.726494
60808 32340.0 -764.1471300000001 1672.5515 -6705.4809000000005 0.94267585 7.3220633 1.6738755
60808 32760.0 -303.76267 4471.835 -5340.3093 1.2113332 5.7780933999999995 4.710884500000001
60808 33180.0 218.52859 6361.9403 -2885.6168 1.2328074999999998 3.0690975 6.7741641
60808 33600.0 696.66052 6963.995900000001 155.31217 1.005002 -0.24937919 7.4563755
60808 34020.0 1034.2936 6161.0339 3165.1448 0.5754055499999999 -3.5073469 6.630263
60808 34440.0 1163.7841 4117.9878 5536.4365 0.030694848 -6.0547813999999995 4.467921400000001
60808 34860.0 1059.1067 1246.4247 6790.636 -0.52092232 -7.3857098 1.4001296
60808 35280.0 740.67065 -1876.2005000000001 6670.2201 -0.9698608000000001 -7.2276315 -1.9676466000000001
60808 35700.0 271.78564 -4616.5715 5190.5154 -1.2245326 -5.592297800000001 -4.9606117
60808 36120.0 -252.69150000000002 -6409.0001 2643.7873 -1.22919 -2.7892843 -6.956425
60808 36540.0 -724.75003 -6874.9865 -450.74056 -0.97878513 0.61245267 -7.518904000000001
60808 36960.0 -1046.057 -5911.3186 -3451.021 -0.52415939 3.8950611 -6.5144241
60808 37380.0 -1149.8788000000002 -3718.4135 -5732.0527 0.038048883 6.3609559 -4.1571854
60808 37800.0 -1015.6886999999999 -755.29762 -6823.8571 0.5891184899999999 7.5000346 -0.9539070900000001
60808 38220.0 -672.57803 2363.8659 -6508.880700000001 1.0157762000000001 7.094605 2.4237767
60808 38640.0 -191.96784 5000.7880000000005 -4860.54 1.2329837000000001 5.2463009000000005 5.286428600000001
60808 39060.0 327.74723 6622.067599999999 -2221.6705 1.1991851999999998 2.3430210000000002 7.0609874
60808 39480.0 781.2345799999999 6903.8117 868.20923 0.9233487699999999 -1.0224641 7.3991075
60808 39900.0 1077.265 5793.5691 3782.8795 0.46233556 -4.1727278 6.242305
60808 40320.0 1156.5533 3517.4805 5934.4499000000005 -0.09127655300000001 -6.4804175 3.8272341
60808 40740.0 1003.0160000000001 533.44762 6887.9791 -0.62769341 -7.4862162 0.63301197
60808 41160.0 646.77037 -2557.7494 6445.281400000001 -1.0399997 -6.979135599999999 -2.7090193
60808 41580.0 158.88172 -5127.0408 4686.4409000000005 -1.2431152 -5.039173 -5.5246527
60808 42000.0 -361.51292 -6641.3776 1962.1872 -1.1913612 -2.0411394 -7.221873400000001
60808 42420.0 -806.8939300000001 -6779.058900000001 -1169.2072 -0.89178665 1.3993970999999998 -7.4252111
60808 42840.0 -1084.3959 -5506.3838 -4056.559 -0.40636678000000004 4.5528763 -6.0802651
60808 43260.0 -1136.617 -3089.4307000000003 -6099.1009 0.16154862 6.75141 -3.4766078000000005
60808 43680.0 -953.9071600000001 -33.270739 -6878.0830000000005 0.69262072 7.5454907 -0.17140548000000003
